ORBCOMM-X               
1 21576U 91050C   25312.43506896  .00000568  00000+0  18097-3 0  9996
2 21576  98.3273  15.9819 0004784 106.7634 253.4082 14.43390874802926
ORBCOMM FM01            
1 23545U 95017A   25312.44369058  .00011224  00000+0  11044-2 0  9994
2 23545  69.9630  73.9159 0000420  74.0259 286.0943 14.92279433634011
ORBCOMM FM02            
1 23546U 95017B   25312.48509115  .00015502  00000+0  14700-2 0  9994
2 23546  69.9631  92.6308 0001957  97.8876 262.2502 14.93637080633687
ORBCOMM FM08            
1 25112U 97084A   25312.50256772  .00002844  00000+0  82382-3 0  9999
2 25112  45.0144  34.8216 0008141 253.8055 106.1901 14.46389554462264
ORBCOMM FM10            
1 25113U 97084B   25311.60767193  .00002655  00000+0  77569-3 0  9995
2 25113  45.0154  41.7616 0006645 222.8123 137.2212 14.46150418637276
ORBCOMM FM11            
1 25114U 97084C   25311.98289883  .00002695  00000+0  79087-3 0  9993
2 25114  45.0143  40.8577 0007485 225.5224 134.5016 14.45891565462289
ORBCOMM FM12            
1 25115U 97084D   25312.49614817  .00002540  00000+0  74748-3 0  9998
2 25115  45.0149  38.1296 0006581 225.8313 134.1998 14.45916467462152
ORBCOMM FM09            
1 25116U 97084E   25311.64338664  .00002664  00000+0  78410-3 0  9995
2 25116  45.0153  43.3084 0007624 213.0078 147.0299 14.45767112462234
